[{"OBJECT_NAME":"STARLINK-32587","OBJECT_ID":"2024-225T","EPOCH":"2026-03-09T22:00:01.999584","MEAN_MOTION":14.98351768,"ECCENTRICITY":0.00034209,"INCLINATION":70.0008,"RA_OF_ASC_NODE":163.7002,"ARG_OF_PERICENTER":270.5021,"MEAN_ANOMALY":8.8291,"EPHEMERIS_TYPE":0,"CLASSIFICATION_TYPE":"U","NORAD_CAT_ID":62180,"ELEMENT_SET_NO":999,"REV_AT_EPOCH":576,"BSTAR":-0.0037866844,"MEAN_MOTION_DOT":-0.00045013,"MEAN_MOTION_DDOT":0},{"OBJECT_NAME":"LANDSAT 5","OBJECT_ID":"1984-021A","EPOCH":"2026-03-09T17:06:39.595392","MEAN_MOTION":15.03956175,"ECCENTRICITY":0.00705197,"INCLINATION":98.0698,"RA_OF_ASC_NODE":343.5816,"ARG_OF_PERICENTER":90.3041,"MEAN_ANOMALY":270.6265,"EPHEMERIS_TYPE":0,"CLASSIFICATION_TYPE":"U","NORAD_CAT_ID":14780,"ELEMENT_SET_NO":999,"REV_AT_EPOCH":77643,"BSTAR":0.00029889959,"MEAN_MOTION_DOT":4.286e-5,"MEAN_MOTION_DDOT":0}]
